#dP2024  7  4  0  0  0.00000000     289 d+D   IGS20 FIT AIUB
## 2321 345600.00000000   300.00000000 60495 0.0000000000000
+   81   G01G02G03G04G05G06G07G08G09G10G11G12G13G14G15G16G17
+        G18G19G20G21G22G23G24G25G26G27G28G29G30G31G32R01R02
+        R03R04R05R07R08R09R11R12R13R14R15R16R17R18R19R20R21
+        R22R24R25R26E02E03E04E05E06E07E08E09E10E11E12E13E14
+        E15E18E19E21E24E25E26E27E30E31E33E34E36  0  0  0  0
++         4  4  4  4  4  4  4  6  4  4  4  4  4  4  4  4  6
++         4  6  4  4  4  4  4  4  4  6  4  6  4  4  4  7  6
++         6  6  6  6  6  4  4  4  5  4  4  4  4  4  5  5  4
++         4  4  4  6  4  4  4  4  5  4  4  4  5  4  4  4  6
++         4  6  4  4  4  4  4  4  4  4  4  4  4  0  0  0  0
%c M  cc GPS ccc cccc cccc cccc cccc ccccc ccccc ccccc ccccc
%c cc cc ccc ccc cccc cccc cccc cccc ccccc ccccc ccccc ccccc
%f  1.2500000  1.025000000  0.00000000000  0.000000000000000
%f  0.0000000  0.000000000  0.00000000000  0.000000000000000
%i    0    0    0    0      0      0      0      0         0
%i    0    0    0    0      0      0      0      0         0
/* Center for Orbit Determination in Europe (CODE)                              
/* Final GNSS orbits and clocks for year-day 2024-1860                          
/* Middle day of a 3-day long-arc GRE solution                                  
/* Product reference - DOI 10.48350/197025                                      
/* PCV:IGS20      OL/AL:FES2014b NONE     YN ORB:CoN CLK:CoN                    
*  2024  7  4 15 20  0.00000000
PG01  -8200.481700  20940.726302  13493.891797    248.078332
PG02  21104.868530  13896.333337  -8188.613223   -405.459958
PG03  12265.036303  16760.407685  16465.001454    443.392190
PG04  15465.121955   6926.837939  20502.899391    396.876019
PG05  -5554.735944 -25752.258793  -3184.552633   -178.593578
PG06  12915.731148  -9289.183177  21349.136838    181.302255
PG07  24724.913558   4932.458473  -8535.506859    -77.103459
PG08   5829.697052  14654.119000 -21433.672910    259.711622
PG09  22301.815889  -4391.817252  13698.365323    260.022997
PG10 -10866.358101  15587.264934 -18207.382364    -57.866231
PG11  -1409.001869 -16825.715894  20541.360071   -698.581762
PG12 -10399.973992 -19448.988035  14553.544060   -519.529207
PG13   4213.109576 -17274.679338 -19865.257289    662.339616
PG14  13491.832894 -11633.921753 -19593.712950    440.923720
PG15  -7811.049603 -14343.118197 -21431.091132    177.363617
PG16    219.032506  26312.122725   -487.114788   -246.062140
PG17  22854.483057 -13691.959276   -228.874633    683.857114
PG18 -24268.154992  -4328.578421 -10141.870606   -632.817794
PG19  18840.476409 -16549.852249   7927.637630    505.678346
PG20  -1151.244026 -25504.283722   7661.525011    373.124417
PG21  17572.532871  15806.304217 -12653.395451    111.144322
PG22  10227.147519 -19674.471262 -14416.263170    -35.509054
PG23 -14558.807434   2720.644723 -22015.588807    265.885828
PG24 -19233.652911 -15411.637956 -10844.058547   -481.535776
PG25 -15027.279931  -9168.052498  19628.906079    498.156685
PG26  -5911.086139  22286.589729  12701.959360    125.897758
PG27  -5865.616171  19114.492230 -17558.920968    -30.250633
PG28 -15054.173959   8744.510308  20049.150729   -317.116384
PG29 -21266.341636   -155.902038  15938.063995   -591.196266
PG30  19843.185570  -4535.830363 -17045.508800   -363.476921
PG31  -4138.674743  14874.517367  21364.573798   -227.001083
PG32 -21124.637742  15894.155861   1099.483182   -613.769821
PR01   9069.792954   6092.971183  23049.191032     90.370316
PR02  16373.341176  -9888.970260  16954.378547    -23.550478
PR03  14685.401929 -20866.220323   1122.016705    103.259945
PR04   5368.406983 -19956.939952 -14932.456562    243.962780
PR05  -6966.750168  -8564.734150 -22986.213631    134.095215
PR07 -14355.937104  21052.530288   -246.782383     85.967111
PR08  -4870.594139  19917.297825  15211.677229     -5.560525
PR09 -13404.837816  -2406.921433  21573.621839    195.843998
PR11   6250.795481  22729.865618   9785.198152     19.288452
PR12  14433.010318  18679.166683  -9625.053207     42.080291
PR13  13957.605689   5484.637258 -20640.853937    -48.967376
PR14   4266.295488 -14020.545682 -20853.142681     26.675694
PR15  -7057.371328 -23099.777352  -8160.637966     78.222450
PR16 -14434.047406 -18732.005079   9527.919297     27.073736
PR17  14502.204541  -7846.320726  19447.000743    101.661579
PR18  -2852.747235 -10688.490146  22989.988225    150.286962
PR19 -17416.020585  -9320.932952  16139.395938   -282.667180
PR20 -25144.135594  -1220.519606  -4003.575484   -115.578829
PR21 -14977.998581   7512.545986 -19249.933772   -114.712517
PR22   3904.173649  11193.282721 -22564.124829     93.725741
PR24  25092.237453   -265.284663   4527.313848    -62.430083
PR25 -14608.316998   7626.541240 -19477.712573    -94.622300
PR26  -5761.990859  20506.069165  14073.238284     -4.784993
PE02   8372.504653  26185.415035 -10961.208802    140.657640
PE03   7782.044262  15082.201065  24250.235435   -124.702214
PE04 -23775.417440    460.703485 -17624.154589   -436.973683
PE05 -12351.831774  21318.395668  16416.957034   4762.922660
PE06 -26616.009476   8460.736683  -9819.631521     -1.217732
PE07  25517.485880 -14916.558839   1417.875695   -129.310478
PE08  23248.096316    250.270577  18311.082903   -297.431810
PE09 -25554.308494  14885.484289  -1500.137003   -503.390969
PE10 -25838.152788  -3436.953629 -14046.160790   -637.836180
PE11 -20056.540933   4883.334283 -21227.164081   2463.489690
PE12 -27157.191686 -10357.008287  -5576.077034  -1109.610370
PE13  20453.781961  -4378.206256  20942.334444    -22.739186
PE14 -27744.872630   7673.754768   9445.511282    100.471743
PE15  27124.216745  10752.888153   4995.108659   -112.773836
PE18  21234.160939   2623.969808 -15426.630200    291.949675
PE19  -5625.943666 -16118.203406 -24171.624651    231.062400
PE21   3947.476495 -28464.959203  -7082.025966   -603.571863
PE24 -14643.809785  13830.469391  21674.081980   -855.186412
PE25  -4232.887130  28325.947443   7487.931060      6.500204
PE26   1426.819333 -17058.282808  24146.617961    502.634278
PE27  14478.829931 -14124.704243 -21606.880743   -391.797953
PE30  16363.386089   8482.204786 -23166.635420   -472.212080
PE31 -16351.042798  -8361.230458  23223.342461    -28.345030
PE33 -17384.075996 -19421.990294  14031.197415     13.432435
PE34  17799.975677  19315.845871 -13646.268124   -120.721717
PE36  -1964.551123  16682.416760 -24376.581325   -250.294437
EOF
